{
  "norad_id": 62770,
  "name": "STARLINK-33594",
  "history": [
    {
      "epoch": "2026-03-28T19:30:31.906656",
      "apogee_km": 475.8696311169833,
      "perigee_km": 474.4722416287568,
      "latitude_deg": 52.652062489374956,
      "longitude_deg": 175.03545184014365,
      "semi_major_axis_km": 6853.30793637287,
      "eccentricity": 0.00010195,
      "inclination_deg": 53.1579,
      "raan_deg": 233.2993,
      "arg_perigee_deg": 71.0965,
      "mean_anomaly_deg": 289.0146,
      "mean_motion_rev_day": 15.30214781
    }
  ]
}